id,type,latitude,longitude,streetName,streetNumber,altitude,slots,bikes,nearbyStations,status
1,BIKE,41.397952,2.180042,Gran Via Corts Catalanes,760,21,1,23,"24, 369, 387, 426",OPN
2,BIKE,41.39553,2.17706,Roger de Flor/ Gran Vía,126,21,3,20,"360, 368, 387, 414",OPN
3,BIKE,41.393699,2.181137,Ali Bei,44,21,0,27,"4, 6, 119, 419",OPN
4,BIKE,41.39347,2.18149,Ribes,13,21,4,14,"3, 5, 359, 419",OPN
5,BIKE,41.391075,2.180223,Pg Lluís Companys,11,16,0,38,"6, 7, 359, 418",OPN
6,BIKE,41.391349,2.18061,Pg Lluís Companys,18,16,28,11,"5, 8, 359, 419",OPN
7,BIKE,41.388856,2.183251,Pg Lluís Companys,1,16,2,24,"8, 118, 389",OPN
8,BIKE,41.389088,2.183568,Pg Lluís Companys,2,11,1,24,"6, 118, 389",OPN
9,BIKE,41.384532,2.184921,Marquès de l'Argentera,13,11,0,26,"14, 40, 115, 389, 390",OPN
10,BIKE,41.38498,2.18417,Carrer Comerç,27,11,33,0,"9, 14, 115, 389",CLS
11,BIKE,41.381689,2.193914,Passeig Marítim,19,1,13,8,"116, 124, 125, 396",OPN
12,BIKE,41.384538,2.195679,Pg Marítim Barceloneta,23,0,13,17,"11, 13, 116, 396",OPN
13,BIKE,41.386861,2.195761,Avinguda Litoral,16,1,33,0,"11, 12, 46, 69",OPN
14,BIKE,41.384675,2.185039,Avinguda del Marques Argentera,15,11,5,22,"9, 40, 115, 389, 390",OPN
15,BIKE,41.39515,2.17076,Girona,74,42,19,0,"23, 25, 362, 413",OPN
16,BIKE,41.39827,2.186708,Av. Meridiana,47,18,16,4,"17, 48, 372",OPN
17,BIKE,41.398237,2.186711,Av. Meridiana,47,18,15,4,"16, 48, 211, 372",OPN
18,BIKE,41.406086,2.174167,Rosselló,453,49,1,25,"19, 28, 120, 370",OPN
19,BIKE,41.403282,2.170726,Rosselló,354,49,22,6,"18, 22, 29, 370",OPN
20,BIKE,41.410166,2.175759,Cartagena,308,59,3,17,"21, 28, 164, 177, 278",OPN
21,BIKE,41.410897,2.17402,Sant Antoni Maria Claret,214,59,2,19,"20, 28, 164, 278",OPN
22,BIKE,41.401684,2.17568,Sardenya,292,28,0,20,"29, 120, 369, 370",OPN
23,BIKE,41.392526,2.171812,Bruc,45,42,24,0,"15, 360, 363, 413",OPN
24,BIKE,41.399982,2.180319,Marina,185,21,0,21,"1, 30, 369, 426",OPN
25,BIKE,41.395179,2.168294,Bruc,102,42,20,0,"15, 123, 362, 413",OPN
26,BIKE,41.407035,2.181981,Dos Maig,230,28,0,18,"120, 121, 177, 371",OPN
27,BIKE,41.396881,2.164415,Provença,322,49,20,1,"123, 189, 224, 374",OPN
28,BIKE,41.405422,2.17064,Sardenya,362,45,0,22,"18, 20, 122, 277",OPN
29,BIKE,41.401101,2.170082,Provença,388,50,2,17,"19, 224, 360, 370",OPN
30,BIKE,41.402046,2.182286,Diagonal,231,28,1,20,"24, 218, 369, 371",OPN
31,BIKE,41.37481,2.18895,Plaça del Mar,72,1,17,1,"33, 39, 41, 124",OPN
32,BIKE,41.373698,2.188927,Plaça del Mar,1,1,23,0,"31, 33, 124, 400",OPN
33,BIKE,41.376862,2.190773,Pontevedra ,58B,1,0,20,"31, 41, 124, 424",OPN
34,BIKE,41.387074,2.175247,Sant Pere Més Alt,4,16,13,6,"36, 105, 359",OPN
35,BIKE,41.413592,2.221153,Sant Ramon de Penyafort,1,1,22,3,"157, 158, 159, 160",OPN
36,BIKE,41.385151,2.176804,Catedral,6,16,4,15,"34, 35, 53, 358",OPN
37,BIKE,41.381226,2.181888,Pl. Antonio López,,5,9,10,"38, 115, 126, 401",OPN
38,BIKE,41.381129,2.186397,Pl. Pau Vila,,1,1,18,"39, 40, 124, 126",OPN
39,BIKE,41.381046,2.186576,Pl. Pau Vila,,1,1,20,"38, 40, 124, 126",OPN
40,BIKE,41.382246,2.186275,Doctor Aiguader,2,1,1,16,"37, 38, 116, 402",OPN
41,BIKE,41.379326,2.189906,Pl. Poeta Boscà/Atlàntida,,1,0,19,"31, 39, 124, 424",OPN
42,BIKE,41.404511,2.189881,Ciutat de Granada,168,18,17,6,"43, 133, 286",OPN
43,BIKE,41.40541,2.18712,Av Meridiana,80,18,0,26,"30, 42, 218",OPN
44,BIKE,41.402165,2.187136,Av Meridiana,66,18,8,8,"30, 42, 43, 286",OPN
45,BIKE,41.391401,2.189399,Marina ,66,18,1,17,"47, 118, 392, 409",OPN
46,BIKE,41.388359,2.193004,Ramon trias Fargas,19,1,10,20,"47, 69, 392, 407",OPN
47,BIKE,41.389076,2.192104,Ramon Trias Fargas,,1,24,7,"13, 46, 392, 407",OPN
48,BIKE,41.395261,2.18708,Meridiana,40,18,4,13,"16, 118, 149, 211",OPN
49,BIKE,41.39106,2.196457,Rosa Sensat en front,20,1,17,4,"46, 117, 163, 396",OPN
50,BIKE,41.375,2.17035,Av. Paral.lel,54,1,0,26,"114, 187, 232, 233",OPN
51,BIKE,41.384054,2.169019,Pl. Vicenç Martorell,,32,14,4,"55, 58, 59, 63",OPN
53,BIKE,41.385227,2.173878,Pl. Carles Pi i Sunyer,,32,11,11,"34, 36, 395",OPN
54,BIKE,41.377635,2.170586,Sant Oleguer,2,24,1,19,"114, 187, 388, 415",OPN
55,BIKE,41.381154,2.173497,La Rambla,80,24,10,8,"54, 378, 379, 395",OPN
56,BIKE,41.377011,2.175834,Portal de Santa Madrona,2,5,6,20,"54, 57, 378, 425",OPN
57,BIKE,41.376758,2.177093,La Rambla,2,5,0,26,"56, 114, 361, 378",OPN
58,BIKE,41.382822,2.167154,Plaça dels Àngels,1,24,1,16,"51, 59, 381, 388",OPN
59,BIKE,41.382781,2.167203,Plaça dels Àngels,2,24,17,3,"51, 58, 381, 388",OPN
60,BIKE,41.390349,2.16424,Rambla Catalunya ,47,41,27,0,"61, 66, 80, 364",OPN
61,BIKE,41.390143,2.164946,Rambla Catalunya,42,41,26,0,"60, 80, 287, 364",OPN
62,BIKE,41.387142,2.168858,Pl. Catalunya ,5,32,20,0,"63, 64, 65, 395",OPN
63,BIKE,41.386439,2.169417,Pl. Catalunya,7,32,24,1,"62, 64, 65, 395",OPN
64,BIKE,41.387469,2.169048,Pl. Catalunya,,32,21,0,"62, 63, 65, 395",OPN
65,BIKE,41.387678,2.169587,Pl. Catalunya,,32,20,0,"62, 63, 64, 395",OPN
66,BIKE,41.389097,2.167933,Gran Via,609,32,15,0,"61, 64, 79, 287",OPN
67,BIKE,41.385012,2.145843,Rocafort,214,51,11,11,"75, 87, 89, 365",OPN
68,BIKE,41.395364,2.157356,Rambla Catalunya,133,59,26,0,"72, 73, 92, 374",OPN
69,BIKE,41.386814,2.195689,Avda. Litoral,,1,29,0,"12, 13, 125, 397",OPN
70,BIKE,41.381328,2.161786,Villarroel,2,35,0,19,"71, 91, 113, 261",OPN
71,BIKE,41.381931,2.162969,Floridablanca ,145,35,5,12,"70, 78, 113, 148",OPN
72,BIKE,41.392716,2.158811,Provença,215,55,20,0,"68, 73, 92, 374",OPN
73,BIKE,41.392846,2.155788,Enric Granados,99,59,17,2,"68, 72, 76, 92",OPN
74,BIKE,41.390062,2.143272,Josep Tarradellas,133,51,14,3,"101, 102, 109, 366",OPN
75,BIKE,41.385081,2.142868,Josep Tarradellas,58,51,15,5,"67, 99, 197, 365",OPN
76,BIKE,41.391751,2.153123,Còrsega,216,45,30,1,"72, 73, 88, 90",OPN
78,BIKE,41.385598,2.16338,Pl. Universitat,,41,27,0,"71, 79, 209, 406",OPN
79,BIKE,41.38547,2.16333,Pl. Universitat,,41,20,0,"78, 209, 287, 406",OPN
80,BIKE,41.389687,2.159999,Enric Granados,35,41,18,1,"60, 209, 385, 394",OPN
81,BIKE,41.378915,2.149174,Vilamarí davant,61,44,10,7,"82, 95, 97, 384",OPN
82,BIKE,41.379016,2.153799,Rocafort,72,40,11,19,"67, 81, 111, 112",OPN
83,BIKE,41.384075,2.153654,Comte Borrell,177,45,0,26,"87, 89, 110, 111",OPN
84,BIKE,41.383374,2.157577,Diputació,152,35,2,17,"78, 91, 110, 209",OPN
85,BIKE,41.375076,2.159046,Paral·lel,146,35,1,18,"112, 129, 235, 236",OPN
86,BIKE,41.37544,2.163,Viladomat,2,35,4,23,"85, 187, 235, 373",OPN
87,BIKE,41.383156,2.148506,Mallorca,41,44,2,13,"67, 111, 191, 384",OPN
88,BIKE,41.393547,2.150764,Londres,101,59,20,0,"76, 109, 220, 350",OPN
89,BIKE,41.387953,2.150169,Rosselló,101,45,24,0,"76, 90, 110, 365",OPN
90,BIKE,41.38834,2.150825,Rosselló,108,45,16,1,"76, 89, 365, 385",OPN
91,BIKE,41.380452,2.158403,Comte Borrell,119,35,0,29,"70, 112, 113, 261",OPN
92,BIKE,41.39386,2.160237,Provença,241,50,18,0,"72, 73, 364, 374",OPN
93,BIKE,41.375454,2.149786,Gran Via,375,40,22,0,"94, 95, 96, 420",OPN
94,BIKE,41.375619,2.149889,Gran Via,375,40,23,0,"93, 95, 96, 420",OPN
95,BIKE,41.376428,2.147734,Tarragona,103,44,16,17,"93, 96, 97, 186",OPN
96,BIKE,41.374152,2.148154,Gran Via,361,61,17,3,"93, 95, 186, 420",OPN
97,BIKE,41.378124,2.145389,Tarragona,141,44,18,2,"81, 95, 100, 186",OPN
98,BIKE,41.380499,2.141153,Viriat,45,44,19,0,"75, 99, 100, 421",OPN
99,BIKE,41.380632,2.141548,Viriat,53,44,18,1,"98, 100, 195, 421",OPN
100,BIKE,41.379135,2.14409,Tarragona,159,44,19,0,"97, 98, 99, 384",OPN
101,BIKE,41.39243,2.14321,Av. Diagonal,602,69,25,1,"74, 102, 319, 366",OPN
102,BIKE,41.39218,2.14213,Av. Diagonal,612,69,22,2,"74, 102, 319, 366",OPN
103,BIKE,41.409856,2.188217,Aragó,629,17,0,20,"26, 104, 127, 132",OPN
104,BIKE,41.410821,2.187365,C/València,621,17,1,24,"26, 103, 127, 177",OPN
105,BIKE,41.389069,2.173424,PL. Urquinaona,9,32,17,1,"65, 359, 363, 412",OPN
106,BIKE,41.405587,2.162317,Pl. Joanic,s/n,59,16,5,"108, 122, 226, 231",OPN
107,BIKE,41.398298,2.153128,Travessera de Gracia,92,59,20,0,"68, 219, 220, 223",OPN
108,BIKE,41.402314,2.164961,Indústria,10,59,12,8,"29, 122, 224, 226",OPN
109,BIKE,41.390981,2.14737,C/ Londres,53,51,19,0,"89, 101, 350, 365",OPN
110,BIKE,41.385554,2.154813,Avda. Roma,117,45,10,10,"83, 84, 209, 385",OPN
111,BIKE,41.381231,2.152755,Calabria,137,41,1,18,"81, 82, 83, 262",OPN
112,BIKE,41.377644,2.15725,Floridablanca,49,40,0,19,"82, 91, 94, 113",OPN
113,BIKE,41.37742,2.1647,Sant Pau,51,30,6,20,"70, 112, 129, 427",OPN
114,BIKE,41.376801,2.173039,Pl. Jean Genet,1,24,1,18,"50, 54, 56, 425",OPN
115,BIKE,41.38377,2.18424,Marqués d'Argentera,3,1,2,19,"14, 37, 401",OPN
116,BIKE,41.383718,2.191414,Salvat Papasseit,72,11,21,0,"11, 13, 38, 39",OPN
117,BIKE,41.390666,2.197024,Rosa Sensat,12,1,19,0,"46, 49, 163, 396",OPN
118,BIKE,41.392212,2.187847,Sardenya,3,18,2,23,"7, 8, 45, 149",OPN
119,BIKE,41.396684,2.182447,Sardenya,178,21,0,20,"3, 372, 387, 426",OPN
120,BIKE,41.404666,2.176515,Lepant,278,28,0,20,"18, 22, 121, 370",OPN
121,BIKE,41.406293,2.178689,Castillejos,258,28,0,20,"18, 26, 120, 371",OPN
122,BIKE,41.405435,2.16624,Nàpols,344,59,11,9,"19, 106, 108, 277",OPN
123,BIKE,41.397411,2.167798,Girona,126,42,19,1,"27, 189, 224, 362",OPN
124,BIKE,41.370297,2.187808,Passeig Joan de Borbó,s/n,5,26,0,"31, 32, 41, 400",OPN
125,BIKE,41.384426,2.195595,Passeig Maritim,31,1,16,3,"12, 13, 69, 398",OPN
126,BIKE,41.380641,2.182243,Passeig de Colom,,5,8,12,"37, 115, 377, 402",OPN
127,BIKE,41.412322,2.19142,Aragó,661,17,0,27,"103, 104, 128, 238",OPN
128,BIKE,41.415581,2.19581,Rambla Guipúscoa,43,13,0,28,"127, 130, 135, 238",OPN
129,BIKE,41.37709,2.16124,Manso,46,35,0,26,"91, 112, 113, 148",OPN
130,BIKE,41.419905,2.201573,Rambla Guipúscoa,103,9,0,21,"127, 128, 131, 139",OPN
131,BIKE,41.422808,2.206036,Rambla Guipúscoa,158,9,2,25,"130, 139, 316",OPN
132,BIKE,41.408439,2.192173,Pl. Valentí Amirall,,13,0,26,"42, 103, 133, 141",OPN
133,BIKE,41.407411,2.192819,Gran Vía,902,16,0,16,"42, 43, 132, 141",OPN
134,BIKE,41.411315,2.198126,Gran Via,990,13,0,20,"135, 136, 141, 145",OPN
135,BIKE,41.411908,2.197936,Gran Vía,981,13,0,20,"136, 137, 141",OPN
136,BIKE,41.414226,2.201734,Gran Vía,1062,9,0,26,"137, 138, 146",OPN
137,BIKE,41.414758,2.201538,"Gran Vía, 1041/ Selva de Mar",1041,9,2,23,"130, 136, 138, 146",OPN
138,BIKE,41.416966,2.205397,Gran Vía,1118,9,0,24,"136, 137, 139, 147",OPN
139,BIKE,41.418035,2.206023,Gran Vía,1131,9,0,26,"130, 131, 138, 147",OPN
140,BIKE,41.38063,2.15614,Viladomat,122,41,0,27,"82, 91, 111, 262",OPN
141,BIKE,41.40902,2.194896,Gran Via ,940,13,0,28,"42, 132, 133, 135",OPN
142,BIKE,41.400503,2.192511,Sancho de Ávila,104,16,33,0,"42, 143, 211",OPN
143,BIKE,41.40325,2.19606,Sancho de Ávila,170,16,25,0,"42, 144, 152, 153, 428",OPN
144,BIKE,41.40562,2.19764,Castella,28,16,0,23,"42, 143, 150, 286",OPN
145,BIKE,41.40982,2.202904,Pere IV,301,9,15,11,"135, 146, 150, 156",OPN
146,BIKE,41.412453,2.204841,Pere IV,383,9,5,21,"136, 137, 138, 145",OPN
147,BIKE,41.416018,2.212658,Rambla Prim,79,5,7,20,"146, 157, 158, 159",OPN
148,BIKE,41.378436,2.163324,Ronda Sant Pau,79,79,1,25,"70, 113, 388, 415",OPN
149,BIKE,41.395905,2.192958,Pujades,57B,11,20,4,"45, 48, 118, 409",OPN
150,BIKE,41.406549,2.203112,Espronceda,124,10,12,13,"144, 145, 154, 155",OPN
151,BIKE,41.40065,2.19719,Pallars,462,6,15,7,"152, 153, 211, 393, 428",OPN
152,BIKE,41.39925,2.197421,Pujades,121,11,18,6,"143, 149, 153, 393",OPN
153,BIKE,41.401778,2.200769,Pujades,173,10,4,19,"152, 154, 165, 393, 428",OPN
154,BIKE,41.402454,2.201656,Pujades,191,10,22,1,"141, 153, 165, 382",OPN
155,BIKE,41.406977,2.207602,Pujades,311,10,9,23,"150, 156, 162, 382",OPN
156,BIKE,41.409017,2.20881,Diagonal,46,5,25,0,"145, 155, 157, 159",OPN
157,BIKE,41.411636,2.216337,C/Llull,396,5,18,8,"35, 147, 158, 159, 160",OPN
158,BIKE,41.411741,2.218546,Rambla de Prim,19,1,23,1,"35, 156, 157, 159, 160",OPN
159,BIKE,41.410882,2.216703,Avda. Diagonal,26,5,14,18,"35, 156, 157, 158, 160",OPN
160,BIKE,41.411026,2.219377,Avda. d'Eduard Maristany,1,1,31,0,"35, 156, 157, 158, 159",OPN
161,BIKE,41.395009,2.196308,Ramon Turro,91,11,20,6,"49, 149, 163, 409",OPN
162,BIKE,41.403908,2.208436,Ramon Turro,292,0,0,26,"155, 166, 167, 168",OPN
163,BIKE,41.3942,2.20077,Avda. Icaria,202,11,6,19,"49, 117, 161, 172",OPN
164,BIKE,41.41194,2.178037,Independència,379,33,0,26,"20, 21, 177",OPN
165,BIKE,41.399196,2.204253,Carrer del Doctor Trueta,221,0,0,24,"153, 154, 166, 173",OPN
166,BIKE,41.401038,2.207883,Bilbao,11,10,0,24,"162, 165, 173, 174",OPN
167,BIKE,41.402561,2.210538,Bac de Roda,11,0,9,11,"162, 166, 168, 176",OPN
168,BIKE,41.405358,2.213677,Selva de Mar,0,0,2,25,"162, 167, 176, 178",OPN
169,BIKE,41.389896,2.200055,Avda. Litoral,40,0,26,1,"11, 170, 172, 397",OPN
170,BIKE,41.389732,2.199934,Avda. Litoral,40,1,23,2,"117, 169, 172, 397",OPN
171,BIKE,41.391986,2.203699,Passeig Marítim de la Nova Icària,83,0,25,2,"163, 169, 170, 172",OPN
172,BIKE,41.391831,2.203436,Passeig Marítim de la Nova Icària,83,0,18,9,"163, 169, 170, 171",OPN
173,BIKE,41.398027,2.208982,Avda. Litoral,84,0,12,14,"166, 171, 174, 190",OPN
174,BIKE,41.40061,2.210461,Passeig de Garcia Fària,21,0,7,19,"166, 173, 176, 178",OPN
175,BIKE,41.40666,2.20956,Llull / Provençals,309,10,22,5,"155, 156, 162, 167",OPN
176,BIKE,41.402541,2.212641,Passeig de Garcia Fària,37,0,6,21,"167, 168, 174, 178",OPN
177,BIKE,41.411089,2.181119,Rosselló,557,0,0,25,"20, 121, 164",OPN
178,BIKE,41.405389,2.216212,Passeig de Garcia Fària,85,0,25,0,"162, 166, 167, 168",OPN
179,BIKE,41.363511,2.13677,Pg. Zona Franca,244,48,0,20,"184, 351, 352, 404",OPN
180,BIKE,41.36778,2.13926,Gran Via,181,50,2,24,"179, 181, 182, 183",OPN
181,BIKE,41.36766,2.13911,Gran Via,180,50,6,20,"179, 180, 182, 183",OPN
182,BIKE,41.371455,2.143882,Gran Via,273,61,0,25,"96, 180, 183, 420",OPN
183,BIKE,41.372338,2.141875,Gavà,1,61,0,27,"181, 182, 185, 420",OPN
184,BIKE,41.367504,2.134088,Quetzal,22,50,0,26,"179, 180, 185, 404",OPN
185,BIKE,41.37046,2.138994,Gavà,81,50,0,20,"180, 181, 184, 404",OPN
186,BIKE,41.375571,2.143812,Consell de Cent,6,44,3,12,"95, 96, 210, 420",OPN
187,BIKE,41.376858,2.169811,Carrer de Sant Pau,89,24,2,15,"50, 54, 416, 427",OPN
188,BIKE,41.375471,2.135543,Pl. Sants (Ps. S. Antoni),0,45,14,12,"210, 313, 354, 421",OPN
189,BIKE,41.396918,2.166163,Bruc,130,50,25,2,"25, 27, 123, 224",OPN
190,BIKE,41.39606,2.207803,Avinguda Litoral,72,0,7,22,"165, 171, 172, 173",OPN
191,BIKE,41.382564,2.149094,Rocafort,167,44,0,27,"81, 87, 111, 384",OPN
192,BIKE,41.378629,2.133467,Joan Güell,50,40,1,19,"188, 193, 194, 314",OPN
193,BIKE,41.381311,2.128912,Figols,1,46,26,1,"192, 194, 199, 312",OPN
194,BIKE,41.381013,2.132319,Joan Güell,98,40,8,18,"192, 193, 200",OPN
195,BIKE,41.381888,2.135433,Vallespir,130,45,0,25,"192, 194, 367",OPN
196,BIKE,41.384522,2.134698,Comte Bell-lloch,216,57,26,0,"195, 198, 200, 367",CLS
197,BIKE,41.386984,2.140959,Entença,227,57,24,0,"75, 201, 367",OPN
198,BIKE,41.38512,2.133282,Vallespir,198,60,19,5,"200, 201, 205",OPN
199,BIKE,41.38182,2.126933,Mejía Lequerica,2,46,14,12,"193, 200, 202, 312",OPN
200,BIKE,41.383756,2.131273,Can bruixa,1,60,23,0,"193, 194, 198",OPN
201,BIKE,41.387787,2.134341,Numància,136,58,28,1,"198, 206, 207, 208",OPN
202,BIKE,41.385331,2.128737,Carrer de les Corts,20,60,26,0,"199, 200, 203, 205",OPN
203,BIKE,41.388742,2.128503,Avda. Diagonal,664,60,27,6,"204, 205, 212, 284",OPN
204,BIKE,41.388011,2.125593,Avda. Diagonal,668,60,31,0,"202, 203, 205, 212",OPN
205,BIKE,41.387465,2.130838,Europa ,25,60,12,21,"198, 202, 203, 284",OPN
206,BIKE,41.389845,2.13284,Avda. Diagonal,650,60,17,15,"201, 207, 208, 284",OPN
207,BIKE,41.390828,2.136665,Avda. Diagonal,634,57,19,0,"201, 204, 206, 208",OPN
208,BIKE,41.391451,2.139116,Avda. Diagonal,630,57,20,12,"201, 206, 207, 366",OPN
209,BIKE,41.385755,2.161004,Diputació,200,41,26,0,"71, 78, 84, 261",OPN
210,BIKE,41.37453,2.142356,Vilardell,18,50,2,22,"183, 185, 186, 421",OPN
211,BIKE,41.398848,2.190291,Sancho de Ávila,60,18,27,2,"16, 48, 142",OPN
212,BIKE,41.392173,2.130319,Numancia,212,82,24,0,"203, 206, 284, 325",OPN
213,BIKE,41.393783,2.135078,Sant Fe de Nou Mèxic,2,79,33,0,"207, 208, 214, 215",OPN
214,BIKE,41.395251,2.133541,José de Agulló,19,85,12,10,"207, 208, 212, 213",OPN
215,BIKE,41.39412,2.138146,Carrer de Ganduxer,29,79,20,0,"102, 213, 214, 324",OPN
216,BIKE,41.396809,2.144534,Madrazo,131,69,13,13,"101, 217, 219, 319",OPN
217,BIKE,41.398463,2.143924,Rector Ubach,24,69,21,2,"102, 216, 219, 319",OPN
218,BIKE,41.404114,2.183203,Consell de Cent,566,28,0,27,"30, 43, 369, 371",OPN
219,BIKE,41.397812,2.147585,Carre Laforja,74,69,22,2,"107, 216, 217, 220",OPN
220,BIKE,41.396229,2.151482,Tuset,19,59,24,0,"68, 88, 107, 219",OPN
221,BIKE,41.402535,2.152519,Gran de Gràcia,155,71,23,1,"107, 222, 229, 230",OPN
222,BIKE,41.40124,2.157483,Carrer del Canó,1,71,21,5,"107, 221, 226, 229",OPN
223,BIKE,41.398311,2.159865,Carrer de Bonavista,14,50,17,14,"68, 224, 225, 374",OPN
224,BIKE,41.399945,2.164389,Girona,176,55,4,17,"27, 108, 123, 189",OPN
225,BIKE,41.38482,2.15057,Mallorca,84,44,5,20,"83, 87, 89, 191",OPN
226,BIKE,41.403465,2.161096,Montmany,1,59,18,9,"106, 108, 122, 231",OPN
227,BIKE,41.407837,2.158678,Torrent de Les Flors,102,59,16,8,"106, 228, 231, 357",OPN
228,BIKE,41.40694,2.155794,Pl. Del Nord,5,71,19,0,"106, 227, 229, 230",OPN
229,BIKE,41.405107,2.156874,Carrer de la Santacreu,2,71,18,10,"106, 226, 227, 228",OPN
230,BIKE,41.405986,2.151633,C. De Nil Fabra,16,71,20,7,"221, 222, 228, 229",OPN
231,BIKE,41.409115,2.16327,C. Del Secretari Coloma,59,87,14,12,"106, 122, 227, 276",OPN
232,BIKE,41.373509,2.171002,Vilà i Vilà,45,1,5,22,"50, 233, 234, 427",OPN
233,BIKE,41.371965,2.166871,Nou de la Rambla,164,1,7,20,"50, 232, 234, 427",OPN
234,BIKE,41.371515,2.162166,Passeig de l'Exposició,30,44,25,2,"85, 233, 235, 236",OPN
235,BIKE,41.373764,2.161632,Elkano,64,44,8,18,"85, 129, 234, 236",OPN
236,BIKE,41.372162,2.156554,Carrer de la França Xica,42,67,24,0,"85, 94, 235, 237",OPN
237,BIKE,41.372891,2.154471,Rius i Taulet,4,67,24,2,"85, 93, 234, 236",OPN
238,BIKE,41.415684,2.190986,Espronceda,298,17,1,25,"127, 240, 248, 289",OPN
239,BIKE,41.417323,2.184534,Indústria,329,18,0,27,"240, 241, 248, 315",OPN
240,BIKE,41.417763,2.187558,Josep Estivill,32,18,0,25,"128, 238, 248, 289",OPN
241,BIKE,41.419337,2.180482,Teodor Llorente,2,40,18,14,"239, 240, 248, 315",OPN
242,BIKE,41.424451,2.177284,Ramon Albó,1,37,1,23,"241, 243, 244, 291",OPN
243,BIKE,41.423939,2.181298,Alenxadre Galí,1,37,15,11,"241, 242, 244",OPN
244,BIKE,41.426896,2.178511,Felip II,214,47,15,11,"242, 243, 251, 300",OPN
246,BIKE,41.422844,2.186637,Garcilaso,77,18,11,7,"249, 250, 251",OPN
247,BIKE,41.421783,2.184245,Olesa,60,19,20,4,"241, 243, 246, 251",OPN
248,BIKE,41.418208,2.190374,Palència,31,18,1,25,"128, 238, 240, 423",OPN
249,BIKE,41.425216,2.188997,Açores,1,18,1,25,"246, 250, 251, 391",OPN
250,BIKE,41.426248,2.190132,Portugal,12,27,6,20,"249, 253, 254",OPN
251,BIKE,41.425405,2.185226,Cardenal Tedeschini,13,27,20,12,"243, 246, 249",OPN
252,BIKE,41.429953,2.193185,Rambla Onze de Setembre,31,18,2,0,"249, 250, 254, 391",CLS
253,BIKE,41.429977,2.191821,Onze de Setembre,37,18,2,23,"250, 254, 257",OPN
254,BIKE,41.430343,2.189581,Gran de Sant Andreu,93,27,18,15,"250, 253, 255",OPN
255,BIKE,41.431183,2.185852,Irlanda,11,27,7,16,"253, 254, 257, 274",OPN
256,BIKE,41.435998,2.189524,Malats,28,25,2,25,"255, 257, 259, 285",OPN
257,BIKE,41.433897,2.189614,Sant Adrià,2,25,10,16,"253, 254, 255, 256",OPN
258,BIKE,41.442013,2.189101,Carrer de Palomar,6,24,1,26,"256, 257, 259, 263",OPN
259,BIKE,41.439109,2.185818,Carrer de Bartrina,14,25,19,6,"256, 257, 258, 267",OPN
260,BIKE,41.43618,2.192952,Plaça de l'Estació,6,19,3,23,"256, 257, 263, 264",OPN
261,BIKE,41.382206,2.160644,Villarroel,39,35,1,24,"70, 71, 84, 90",OPN
262,BIKE,41.379821,2.152496,Rocafort,103,40,10,23,"81, 82, 111, 191",OPN
263,BIKE,41.437814,2.191039,Pg.Torras i Bages,29,27,7,12,"256, 257, 260, 264",OPN
264,BIKE,41.439949,2.197033,República Dominicana,25,19,14,18,"263, 267, 268, 344",OPN
265,BIKE,41.38566,2.15837,"Casanovas, 71",82,41,11,14,"80, 84, 110, 209",OPN
266,BIKE,41.426841,2.184238,Concepció Arenal,176,37,23,0,"263, 264, 268, 344",OPN
267,BIKE,41.443395,2.190623,Passeig Torras i Bages,129,24,3,23,"258, 263, 264, 268",OPN
268,BIKE,41.445705,2.192892,Fernando Pessoa,72,23,17,8,"263, 264, 267, 271",OPN
269,BIKE,41.448128,2.192826,Via Barcino,121,23,0,26,"264, 268, 271",OPN
270,BIKE,41.448628,2.18976,Crta. de Ribes (Trinitat Vella),77,24,0,0,"267, 268, 269, 271",CLS
271,BIKE,41.450634,2.192335,Via Barcino,69,18,6,13,"267, 268, 269",OPN
272,BIKE,41.432552,2.18429,Concepció Arenal,281,27,14,12,"255, 273, 274, 298",OPN
273,BIKE,41.430404,2.183382,Avda. Meridiana,404,27,32,2,"255, 272, 274, 275",OPN
274,BIKE,41.430071,2.18473,Rambla Fabra i Puig,67,27,20,11,"254, 255, 272, 273",OPN
275,BIKE,41.430693,2.182225,Rio de Janeiro,3,27,30,0,"272, 273, 274, 298",OPN
276,BIKE,41.412163,2.165275,Plaça Alfons X el Savi / Ronda del Guinardó ,,87,19,7,"231, 277, 278, 318",OPN
277,BIKE,41.408284,2.16905,Travessera de Gràcia,328,59,18,8,"28, 122, 123, 231",OPN
278,BIKE,41.411503,2.172073,Rosalia de Castro,41,59,22,1,"20, 21, 28, 277",OPN
279,BIKE,41.415951,2.174564,Mas Casanovas,137,70,13,14,"278, 281, 318",OPN
280,BIKE,41.412804,2.17853,Industria ,241,33,25,0,"20, 21, 164, 239",CLS
281,BIKE,41.418088,2.176313,Escornalbou,51,45,19,4,"241, 242, 243, 279",OPN
282,BIKE,41.427561,2.166022,Font d'en Fargas,1,88,7,19,"291, 292, 293, 295",OPN
283,BIKE,41.42968,2.16157,Carrer Fulton,1,88,11,7,"282, 291, 292, 293",OPN
284,BIKE,41.389503,2.131454,Ada. Diagonal,652,60,27,0,"203, 205, 206, 212",OPN
285,BIKE,41.436708,2.186059,Malats,98,25,9,15,"256, 257, 259, 272",OPN
286,BIKE,41.403103,2.191428,Bolívia,76,18,21,0,"42, 142, 143",OPN
287,BIKE,41.389171,2.168113,Gran Via,632,32,15,0,"61, 64, 66, 406",OPN
288,BIKE,41.429636,2.174487,Pl. Virrei Amat,,63,29,1,"244, 291, 292, 293",OPN
289,BIKE,41.416828,2.191022,Múrcia,64,18,0,27,"127, 238, 240, 248",OPN
290,BIKE,41.437094,2.174047,Plaça dels Jardins d'Alfàbia,1,61,25,2,"294, 295, 299, 301",OPN
291,BIKE,41.425897,2.17505,Cubelles,2,55,20,5,"242, 244, 282, 292",OPN
292,BIKE,41.430036,2.171974,Amilcar,1,63,22,3,"282, 291, 293, 300",OPN
293,BIKE,41.428747,2.164559,Petrarca,44,88,27,0,"282, 291, 292, 295",OPN
294,BIKE,41.436373,2.170678,Seu del Districte (Nou Barris),,61,19,7,"290, 295, 299, 301",OPN
295,BIKE,41.43345,2.1715,Sant Iscle,60,61,21,4,"282, 292, 294, 301",OPN
296,BIKE,41.436505,2.183877,Carrer de Rosselló i Porcel,1,25,31,1,"259, 272, 285, 298",OPN
297,BIKE,41.438864,2.176822,Carrer Turó Blau,1,45,22,1,"290, 296, 298, 299",OPN
298,BIKE,41.43463,2.181747,Andreu Nin,22,45,30,0,"275, 296, 300",OPN
299,BIKE,41.433965,2.175199,Carrer de l'Escultor Ordóñez,55,45,13,12,"294, 295, 297, 301",OPN
300,BIKE,41.431593,2.176909,Carrer de Maladeta,1,47,1,16,"275, 298, 299, 301",OPN
301,BIKE,41.437053,2.169644,Marie Curie,8,61,24,2,"290, 294, 295, 299",OPN
302,BIKE,41.39065,2.111615,Cavallers,41,73,20,6,"303, 304, 335, 336",OPN
303,BIKE,41.393341,2.115076,Cavallers,67,101,8,19,"302, 304, 335, 336",OPN
304,BIKE,41.390208,2.121029,Manuel Girona,7,63,30,0,"203, 204, 305, 335",OPN
305,BIKE,41.387498,2.123637,Diagonal,680,63,25,0,"203, 204, 305, 306",OPN
306,BIKE,41.385465,2.122912,Doctor Salvador Cardenal,7,63,32,0,"199, 204, 305, 310",OPN
307,BIKE,41.379135,2.113505,Pintor Ribalta,,50,26,5,"308, 309, 310, 311",OPN
308,BIKE,41.376788,2.113864,Cardenal Reig,11,50,9,15,"307, 309, 310, 311",OPN
309,BIKE,41.37674,2.116973,Sant Ramón Nonat,26,47,18,9,"307, 308, 310, 311",OPN
310,BIKE,41.381223,2.119077,Josep Samitier,,47,22,0,"306, 307, 309, 311",OPN
311,BIKE,41.378638,2.120393,Gallego-Arístides Maillol,2,52,20,3,"307, 308, 309, 310",OPN
312,BIKE,41.379046,2.123253,Arizala,77,50,22,10,"193, 199, 311, 353",OPN
313,BIKE,41.374511,2.130982,Rambla Badal,184,39,1,26,"185, 188, 314, 354",OPN
314,BIKE,41.37836,2.129737,Rambla del Brasil,44,46,2,23,"192, 193, 313, 354",OPN
315,BIKE,41.415617,2.181966,Guinardó,32,33,1,25,"177, 239, 241",OPN
316,BIKE,41.422212,2.198316,Cantàbria,55,13,0,25,"128, 130, 131",OPN
317,BIKE,41.425566,2.200693,Rambla Prim,256,12,0,0,"130, 131, 316, 391",CLS
318,BIKE,41.413406,2.171331,Cartagena,83,59,12,14,"21, 276, 278, 279",OPN
319,BIKE,41.39472,2.145161,Amigó,23,69,23,6,"101, 102, 216, 219",OPN
320,BIKE,41.403384,2.145875,Francolí,21,86,23,2,"217, 221, 230, 321",OPN
321,BIKE,41.404038,2.143648,Carrer de Pádua,98,86,26,0,"217, 230, 322, 326",OPN
322,BIKE,41.400977,2.13907,Santaló,165,106,25,0,"217, 323, 324, 328",OPN
323,BIKE,41.397996,2.138717,Vallmajor,13,79,25,0,"214, 215, 217, 324",OPN
324,BIKE,41.396938,2.136258,Reina Victoria,31,79,27,0,"214, 215, 322, 323",OPN
325,BIKE,41.39493,2.130325,Alt de Gironella,13,82,12,8,"212, 214, 331, 333",OPN
326,BIKE,41.407384,2.1383,Balmes,409,110,21,12,"321, 327, 328, 330",OPN
327,BIKE,41.405,2.13453,Reus,23,106,23,1,"321, 322, 326, 328",OPN
328,BIKE,41.40293,2.13427,Artesa de Segre,2,106,25,0,"321, 322, 327, 329",OPN
329,BIKE,41.402879,2.128541,Carrer de les Escoles Pies,99,130,3,24,"327, 328, 330, 332",OPN
330,BIKE,41.400587,2.130658,Doctor Carulla,44,130,19,8,"328, 329, 331, 332",OPN
331,BIKE,41.39706,2.12801,Castellnou,65,82,32,0,"325, 332, 333, 335",OPN
332,BIKE,41.399822,2.12809,Doctor Roux,86,82,22,0,"329, 330, 331, 333",OPN
333,BIKE,41.395632,2.125106,Passatge de Senillosa,3,82,13,13,"325, 331, 335, 336",OPN
334,BIKE,41.400722,2.123268,Via Augusta,348,138,3,24,"331, 332, 337, 338",OPN
335,BIKE,41.393639,2.123224,Santa Amèlia,2,96,27,0,"212, 304, 333, 336",OPN
336,BIKE,41.395274,2.120973,Caponata,10,96,4,23,"333, 335, 337, 338",OPN
337,BIKE,41.398719,2.120422,Carme Karr,12,96,22,1,"333, 334, 336, 338",OPN
338,BIKE,41.397572,2.119506,Avinguda de J.Foix,63,96,21,11,"333, 334, 336, 337",OPN
339,BIKE,41.4026,2.2037,Bilbao,51,10,8,19,"153, 154, 165, 382",OPN
340,BIKE,41.436145,2.204634,Sant Adrià,113,28,3,21,"264, 341, 343, 344",OPN
341,BIKE,41.434191,2.205886,Passeig Enric Sanchís,33,28,2,25,"264, 340, 343, 344",OPN
342,BIKE,41.403502,2.193702,Roc Boronat,134,18,24,1,"142, 152, 153, 393, 428",OPN
343,BIKE,41.438886,2.199598,Campana de la Maquinista,,19,22,3,"260, 264, 340, 344",OPN
344,BIKE,41.443127,2.199538,Ciutat d'Asunción,73,23,22,5,"260, 263, 264, 343",OPN
345,BIKE,41.363093,2.139771,Pl. Teresa de Claramunt,,48,11,22,"179, 180, 346, 351",OPN
346,BIKE,41.360654,2.139132,Carrer de la Foneria,33,48,6,25,"345, 347, 348, 349",OPN
347,BIKE,41.359496,2.14182,Alts Forns,77,35,28,3,"345, 346, 348, 349",OPN
348,BIKE,41.357067,2.141563,Jardins de Can Ferrero,,13,18,12,"345, 346, 347, 349",OPN
349,BIKE,41.357338,2.137172,Carrer de l'Energia,2,13,13,18,"345, 347, 348, 351",OPN
350,BIKE,41.391833,2.14812,Villarroel,208,69,30,2,"88, 90, 101, 109",OPN
351,BIKE,41.362135,2.135637,Jane Addams,26,48,19,13,"179, 345, 352, 404",OPN
352,BIKE,41.36335,2.134144,Radi,10,48,22,9,"179, 346, 351, 404",OPN
353,BIKE,41.375414,2.123191,Munné,6,47,9,18,"309, 311, 314, 354",OPN
354,BIKE,41.37592,2.13008,Rambla del Brasil,5,46,5,21,"188, 312, 313, 314",OPN
355,BIKE,41.37211,2.12859,Carreras i Candi,89,39,15,10,"184, 313, 353, 354",OPN
356,BIKE,41.411067,2.16107,Balcells,48,87,25,0,"227, 231, 276, 357",OPN
357,BIKE,41.410538,2.1581,Cardener,82,104,25,0,"227, 228, 231, 356",OPN
358,BIKE,41.387225,2.17927,Gombau,24,16,5,22,"34, 35, 36, 390",OPN
359,BIKE,41.390021,2.177572,Méndez Núñez,16,16,0,23,"5, 358, 362, 363",OPN
360,BIKE,41.395213,2.172984,Bailén,62,42,27,3,"15, 23, 362, 413",OPN
361,BIKE,41.376292,2.178553,Passeig de Colom,,5,13,16,"56, 57, 376, 410",OPN
362,BIKE,41.397006,2.17057,Bailén,100,42,11,20,"15, 22, 123, 360",OPN
363,BIKE,41.39076,2.1744,Bruc,20,32,12,14,"23, 34, 105, 359, 412",OPN
364,BIKE,41.39324,2.16343,Passeig de Gràcia,61,50,30,0,"60, 72, 92, 374",OPN
365,BIKE,41.387499,2.14702,Viladomat,244,51,27,2,"67, 75, 89, 109",OPN
366,BIKE,41.393037,2.14358,Pau Casals,1,69,27,0,"74, 101, 102, 208",OPN
367,BIKE,41.385057,2.137331,Sentmenat,39,57,21,5,"75, 197, 201",OPN
368,BIKE,41.396815,2.175714,Diputació,350,21,1,26,"1, 360, 362, 387",OPN
369,BIKE,41.400168,2.177948,Consell de Cent,482,28,0,26,"1, 22, 24, 30",OPN
370,BIKE,41.403735,2.172987,Sardenya,234,49,2,27,"18, 19, 22, 120",OPN
371,BIKE,41.404027,2.181264,Carrer dels Enamorats,49,28,2,31,"26, 30, 218, 369",OPN
372,BIKE,41.400167,2.184362,Ribes,77,18,1,24,"1, 16, 119, 426",OPN
373,BIKE,41.375073,2.161305,Av. Paral.lel,132,35,8,27,"85, 86, 113, 235",OPN
374,BIKE,41.395,2.16123,Passeig de Gràcia,89,50,32,0,"27, 68, 72, 92",OPN
375,BIKE,41.372154,2.180701,World Trade Center,,1,25,2,"56, 57, 114, 376, 410",OPN
376,BIKE,41.371663,2.180302,World Trade Center,,1,13,14,"56, 57, 361, 375, 378",OPN
377,BIKE,41.37747,2.183737,Pl. Ictíneo,,1,22,7,"37, 38, 126, 402",OPN
378,BIKE,41.378516,2.176716,Pl.Joaquim Xira i Palau,1,5,14,4,"56, 57, 114, 425",OPN
379,BIKE,41.381709,2.177308,Pl. Sant Miquel,4,5,13,4,"37, 55, 378, 401",OPN
380,BIKE,41.385463,2.174252,Duran i Bas,2,32,23,0,"34, 36, 53, 395",CLS
381,BIKE,41.381607,2.167667,Agustí Duran i Sanpere,10,24,1,29,"51, 59, 388, 415",OPN
382,BIKE,41.403938,2.204188,Lope de Vega,79,10,2,24,"150, 154, 155, 162",OPN
384,BIKE,41.380708,2.146793,Vilamarí,85,44,1,25,"81, 87, 100, 191",OPN
385,BIKE,41.387978,2.155266,Casanova,119,45,26,4,"76, 89, 90, 110",OPN
386,BIKE,41.375086,2.156848,Av.Paral.lel,164,40,8,16,"85, 112, 236, 237",OPN
387,BIKE,41.395796,2.178784,Nàpols,125,21,1,25,"1, 3, 119, 414",OPN
388,BIKE,41.380593,2.167418,Riera Alta,6,24,0,23,"54, 58, 148, 381",OPN
389,BIKE,41.38739,2.1875,Recinte Parc de la Ciutadella,,11,7,20,"6, 14, 47, 118",OPN
390,BIKE,41.386955,2.18195,Comerç,36,16,4,22,"7, 9, 389",OPN
391,BIKE,41.422873,2.191204,Sagrera,74,18,0,27,"238, 248, 289, 423",OPN
392,BIKE,41.390595,2.190681,Ramon Turró,4,11,0,18,"45, 47, 118, 409",OPN
393,BIKE,41.402177,2.197653,Llacuna,86,16,18,15,"142, 152, 153, 428",OPN
394,BIKE,41.38733,2.16305,Diputació,226,41,27,0,"79, 80, 209",OPN
395,BIKE,41.386009,2.170212,Pl. Catalunya,22,32,30,1,"62, 63, 64, 65",OPN
396,BIKE,41.389028,2.196844,Joan Miró,2,1,25,6,"49, 117, 397, 407",OPN
397,BIKE,41.388894,2.199334,Av. Del Litoral,24,1,26,0,"69, 117, 170, 172",OPN
398,BIKE,41.381011,2.193502,Passeig Marítim de la Barceloneta,,0,1,25,"11, 12, 124, 424",OPN
400,BIKE,41.36958,2.188017,Moll Oriental,,5,26,0,"31, 32, 33, 41, 124",OPN
401,BIKE,41.381241,2.181838,Pl. Antonio López (Via Laietana) annexa a la 37,,5,6,17,"37, 115, 126, 402",OPN
402,BIKE,41.380565,2.182119,Passeig de Colom,,5,3,19,"37, 38, 377, 401",OPN
404,BIKE,41.365374,2.133087,Juan Gris,28,16,21,5,"179, 180, 184, 352",OPN
405,BIKE,41.38551,2.152,Comte Borrell,198,45,15,9,"83, 87, 110, 225",OPN
406,BIKE,41.386512,2.164597,Gran Via de Les Corts Catalanes,592,41,31,0,"62, 78, 79, 287",OPN
407,BIKE,41.388471,2.192835,Ramon Trias Fargas,19,1,4,23,"46, 47, 69, 392",OPN
408,BIKE,41.388609,2.19231,"Villena, 11",11,1,18,16,"46, 47, 392, 409",OPN
409,BIKE,41.392358,2.192478,Joan d'Àustria,31 B,11,20,4,"45, 47, 149, 392",OPN
410,BIKE,41.376433,2.17871,"Passeig de Colom, s/n",,5,18,13,"56, 57, 361, 375",OPN
412,BIKE,41.389012,2.172667,Pl. Urquinaona,3,32,23,1,"34, 64, 65, 105, 363",OPN
413,BIKE,41.393512,2.170718,Bruc,66,42,25,0,"15, 23, 25, 360",OPN
414,BIKE,41.393744,2.176451,Casp,67,21,24,7,"23, 360, 363, 387",OPN
415,BIKE,41.379374,2.168921,Rambla del Raval,13,24,1,24,"54, 187, 388, 416",OPN
416,BIKE,41.378134,2.16965,Rambla del Raval,20,24,3,23,"54, 187, 388, 415",OPN
418,BIKE,41.390943,2.180251,Passeig de Lluís Companys ,,16,2,22,"6, 7, 359, 419",OPN
419,BIKE,41.391299,2.180828,Passeig de Lluís Companys,,16,0,30,"4, 6, 8, 418",OPN
420,BIKE,41.374213,2.148082,Gran Via,361,61,24,2,"93, 94, 95, 96",OPN
421,BIKE,41.377845,2.13923,Plaça de Joan Peiró,,45,21,9,"98, 100, 188, 210",OPN
423,BIKE,41.420201,2.189532,Carrer d'Hondures,32,18,0,26,"240, 248, 289, 391",OPN
424,BIKE,41.379632,2.192662,"Passeig Marítim de la Barceloneta, devant del 5-7",5,0,6,19,"11, 41, 124, 398",OPN
425,BIKE,41.37652,2.1749,Carrer de Cervelló,5,24,0,27,"50, 56, 57, 114",OPN
426,BIKE,41.398305,2.183023,Carrer de Ribes,59,21,1,29,"1, 24, 119, 372",OPN
427,BIKE,41.375336,2.168007,Carrer de Sant Pau,119,24,4,14,"50, 148, 187, 232",OPN
428,BIKE,41.398389,2.196261,Carrer Pujades,103,11,20,3,"142, 149, 153, 161",OPN
451,BIKE-ELECTRIC,41.37445,2.159668,(PK) C/ JAUME FABRA,12,35,8,4,"453, 486",OPN
452,BIKE-ELECTRIC,41.398747,2.186289,(PK) C/ PADILLA,159,18,7,3,"459, 476",OPN
453,BIKE-ELECTRIC,41.379563,2.16204,(PK) C/ URGELL,14,35,4,6,"451, 480",OPN
454,BIKE-ELECTRIC,41.402448,2.204131,(PK) C/ BILBAO,24,18,8,4,469,OPN
455,BIKE-ELECTRIC,41.388966,2.19917,(PK) AV. DEL LITORAL,34,1,8,2,"467, 479",OPN
456,BIKE-ELECTRIC,41.389853,2.128581,(PK) C/ DE FLOS I CALCAT,2,60,7,5,"458, 470",OPN
457,BIKE-ELECTRIC,41.401519,2.134235,(PK) C/ DE JOSEP BALARÍ,2,106,8,4,"465, 470",OPN
458,BIKE-ELECTRIC,41.384344,2.122085,(PK) AV. JOAN XXIII,23-25,60,10,2,"456, 471",OPN
459,BIKE-ELECTRIC,41.393941,2.181443,(PK) C/ D'ALÍ BEI,54,21,5,7,"452, 492",OPN
460,BIKE-ELECTRIC,41.385702,2.177316,(PK) AV. FRANCESC CAMBÓ,10,16,5,7,"485, 493",OPN
461,BIKE-ELECTRIC,41.384111,2.14274,(PK) AV. JOSEP TARRADELLAS,46,51,6,6,"452, 481",OPN
462,BIKE-ELECTRIC,41.390125,2.143221,(PK) AV. JOSEP TARRADELLAS,139,51,6,4,"461, 487",OPN
463,BIKE-ELECTRIC,41.375244,2.169795,(PK) C/ DE L´ABAT SAFONT,2,1,5,5,"453, 480",OPN
464,BIKE-ELECTRIC,41.427727,2.177205,"(PK) C/ DE RAMON ALBÓ, 77s",77,42,6,6,"468, 488",OPN
465,BIKE-ELECTRIC,41.40542,2.142456,(PK) RDA. DEL GENERAL MITRE,203,76,8,3,"457, 472",OPN
466,BIKE-ELECTRIC,41.415745,2.180684,(PK) PG. MARAGALL,54,33,5,7,"475, 488",OPN
467,BIKE-ELECTRIC,41.38582,2.194135,(PK) C/ DEL DR. AIGUADER,86-88,1,8,4,"455, 479",OPN
468,BIKE-ELECTRIC,41.430201,2.187974,(PK) C/ DE LES MONGES,2,27,8,4,"464, 488",OPN
469,BIKE-ELECTRIC,41.404362,2.197132,(PK) RAMBLA DEL POBLENOU,130,32,6,5,"454, 476",OPN
470,BIKE-ELECTRIC,41.397921,2.125411,(PK) C/ CARDENAL DE SENTMENAT,8,82,10,2,"457, 471",OPN
471,BIKE-ELECTRIC,41.39415,2.114973,(PK) C/ MARQUÈS DE MULHACÉN,51,101,9,3,"458, 470",OPN
472,BIKE-ELECTRIC,41.407353,2.151341,(PK) C/ DEL TORRENT DE L´OLLA,221,72,7,3,"465, 474",OPN
473,BIKE-ELECTRIC,41.404459,2.214978,(PK) PG. DE GARCIA FÀRIA,71,1,9,3,"454, 482",OPN
474,BIKE-ELECTRIC,41.3989,2.153668,(PK) PL. GAL·LA PLACÍDIA,2,59,5,5,"483, 486",OPN
475,BIKE-ELECTRIC,41.408528,2.169385,(PK) C/ DE LA MARINA,345,59,9,3,"483, 496",OPN
476,BIKE-ELECTRIC,41.402459,2.19042,(PK) C/ DE BADAJOZ,168,18,9,3,"452, 469",OPN
477,BIKE-ELECTRIC,41.376648,2.178745,(PK) PG. DE COLOM,1,1,5,5,"478, 493",OPN
478,BIKE-ELECTRIC,41.3798,2.1891,(PK) C/ DEL BALUARD,27,1,5,6,"467, 477",OPN
479,BIKE-ELECTRIC,41.387298,2.196595,(PK) C/ DE LA MARINA,13-17,1,7,5,"455, 467",OPN
480,BIKE-ELECTRIC,41.381516,2.170239,(PK) C/ DELS FLORISTES DE LA RAMBLA ,8,24,6,6,"463, 493",OPN
481,BIKE-ELECTRIC,41.383036,2.150337,(PK) C/ DE VALÈNCIA,77,44,7,5,"461, 495",OPN
482,BIKE-ELECTRIC,41.41306,2.22123,(PK) PL. D'ERNEST LLUCH I MARTIN,SN,1,7,5,"473, 489",OPN
483,BIKE-ELECTRIC,41.401752,2.160748,(PK) C/ DE SIRACUSA,39-51,58,6,6,"474, 486",OPN
484,BIKE-ELECTRIC,41.388101,2.166997,(PK) RAMBLA CATALUNYA - RDA. UNIVERSITAT,SN,40,5,7,"485, 494",OPN
485,BIKE-ELECTRIC,41.389914,2.173239,(PK) PLAÇA URQUINAONA,SN,32,9,1,"460, 492",OPN
486,BIKE-ELECTRIC,41.396934,2.159445,(PK) PG. DE GRÀCIA - DIAGONAL,,50,7,5,"451, 474",OPN
487,BIKE-ELECTRIC,41.38921,2.154,(PK) PL. DE FERRER I CAJIGAL,,45,6,6,"462, 481",OPN
488,BIKE-ELECTRIC,41.423976,2.184391,(PK) C/ DE CIENFUEGOS,13,18,10,2,"464, 468",OPN
489,BIKE-ELECTRIC,41.409532,2.188282,(PK) PLAÇA CANONGE RODÓ,SN,40,5,6,"469, 482",OPN
490,BIKE-ELECTRIC,41.39698,2.197721,"(PK) C/ DE BADAJOZ, 58",58,11,3,0,"454, 469",CLS
491,BIKE-ELECTRIC,41.37252,2.12898,(PK) C/ DE CARRERAS I CANDI,65,61,8,4,"458, 495",OPN
492,BIKE-ELECTRIC,41.394232,2.175278,PL. DE TETUAN,8-9 ,21,11,13,"459, 485",OPN
493,BIKE-ELECTRIC,41.38186,2.177086,PL. SANT MIQUEL,4,8,11,13,"460, 477",OPN
494,BIKE-ELECTRIC,41.389481,2.165357,RAMBLA CATALUNYA,31,41,14,9,"484, 485",OPN
495,BIKE-ELECTRIC,41.377191,2.149283,C/ DIPUTACIÓ - TARRAGONA,SN,45,16,8,"451, 481",OPN
496,BIKE-ELECTRIC,41.404871,2.175141,C/ DE PROVENÇA,445,21,8,16,"452, 475",OPN
